{
  "norad_id": 62117,
  "name": "STARLINK-32521",
  "history": [
    {
      "epoch": "2026-04-15T20:30:17.548128Z",
      "apogee_km": 484.07026298486835,
      "perigee_km": 482.0379781749525,
      "latitude_deg": 6.426005316241178e-06,
      "longitude_deg": 131.06882896550943,
      "height_km": 482.7168247822235,
      "semi_major_axis_km": 6861.19112057991,
      "eccentricity": 0.0001481,
      "inclination_deg": 42.9984,
      "raan_deg": 282.6524,
      "arg_perigee_deg": 276.4355,
      "mean_anomaly_deg": 83.6328,
      "mean_motion_rev_day": 15.27578322
    },
    {
      "epoch": "2026-04-16T20:02:39.850080Z",
      "apogee_km": 483.68421644612044,
      "perigee_km": 482.4642930850232,
      "latitude_deg": -4.297373358217801e-05,
      "longitude_deg": 131.46861927670926,
      "height_km": 482.46475608772977,
      "semi_major_axis_km": 6861.2112547655715,
      "eccentricity": 8.89e-05,
      "inclination_deg": 42.9998,
      "raan_deg": 277.1119,
      "arg_perigee_deg": 50.958,
      "mean_anomaly_deg": 309.135,
      "mean_motion_rev_day": 15.27571598
    },
    {
      "epoch": "2026-04-17T19:34:59.765664Z",
      "apogee_km": 484.00822356406934,
      "perigee_km": 482.01602030502454,
      "latitude_deg": 2.416642630889785e-05,
      "longitude_deg": 131.88140368043943,
      "height_km": 482.8570056019511,
      "semi_major_axis_km": 6861.149121934546,
      "eccentricity": 0.00014518,
      "inclination_deg": 43.0006,
      "raan_deg": 271.5743,
      "arg_perigee_deg": 266.0805,
      "mean_anomaly_deg": 93.9881,
      "mean_motion_rev_day": 15.27592348
    },
    {
      "epoch": "2026-04-18T20:41:28.699872Z",
      "apogee_km": 484.00858176812926,
      "perigee_km": 481.8638102870509,
      "latitude_deg": -3.6691733911515075e-05,
      "longitude_deg": 108.31952933374565,
      "height_km": 482.6894851587205,
      "semi_major_axis_km": 6861.07319602759,
      "eccentricity": 0.0001563,
      "inclination_deg": 42.9996,
      "raan_deg": 265.6642,
      "arg_perigee_deg": 271.2559,
      "mean_anomaly_deg": 88.8113,
      "mean_motion_rev_day": 15.27617705
    },
    {
      "epoch": "2026-04-19T17:05:31.138944Z",
      "apogee_km": 484.4629518950196,
      "perigee_km": 481.67044199036445,
      "latitude_deg": 6.3540934893062755e-06,
      "longitude_deg": 156.67068548910973,
      "height_km": 482.44678825285774,
      "semi_major_axis_km": 6861.203696942692,
      "eccentricity": 0.0002035,
      "inclination_deg": 42.9978,
      "raan_deg": 260.8633,
      "arg_perigee_deg": 286.5128,
      "mean_anomaly_deg": 73.55,
      "mean_motion_rev_day": 15.27574122
    },
    {
      "epoch": "2026-04-20T10:21:14.663808Z",
      "apogee_km": 484.7663548222945,
      "perigee_km": 481.3434434076644,
      "latitude_deg": 3.274507405244832e-05,
      "longitude_deg": -107.03137013671447,
      "height_km": 482.26955925497754,
      "semi_major_axis_km": 6861.19189911498,
      "eccentricity": 0.00024944,
      "inclination_deg": 42.9986,
      "raan_deg": 256.8015,
      "arg_perigee_deg": 289.1947,
      "mean_anomaly_deg": 70.8635,
      "mean_motion_rev_day": 15.27578062
    },
    {
      "epoch": "2026-04-21T19:18:31.005792Z",
      "apogee_km": 483.35743119852486,
      "perigee_km": 482.55331117262176,
      "latitude_deg": 3.2869456642833565e-06,
      "longitude_deg": 109.54500863829749,
      "height_km": 482.6221803936528,
      "semi_major_axis_km": 6861.092371185573,
      "eccentricity": 5.86e-05,
      "inclination_deg": 42.9998,
      "raan_deg": 249.0494,
      "arg_perigee_deg": 285.751,
      "mean_anomaly_deg": 74.3277,
      "mean_motion_rev_day": 15.27611301
    },
    {
      "epoch": "2026-04-22T15:42:33.800832Z",
      "apogee_km": 484.4427455573523,
      "perigee_km": 481.768233234985,
      "latitude_deg": -1.5385048785873127e-05,
      "longitude_deg": 157.89391050661396,
      "height_km": 482.8844874741812,
      "semi_major_axis_km": 6861.242489396168,
      "eccentricity": 0.0001949,
      "inclination_deg": 42.9984,
      "raan_deg": 244.2478,
      "arg_perigee_deg": 269.9127,
      "mean_anomaly_deg": 90.1501,
      "mean_motion_rev_day": 15.27561167
    },
    {
      "epoch": "2026-04-23T01:07:30.248832Z",
      "apogee_km": 484.4264350404301,
      "perigee_km": 481.67358958734803,
      "latitude_deg": 1.2330021886563424e-05,
      "longitude_deg": 14.05555090350391,
      "height_km": 482.7887401056356,
      "semi_major_axis_km": 6861.187012313889,
      "eccentricity": 0.00020061,
      "inclination_deg": 43.0015,
      "raan_deg": 242.0313,
      "arg_perigee_deg": 271.6079,
      "mean_anomaly_deg": 88.4543,
      "mean_motion_rev_day": 15.27579694
    },
    {
      "epoch": "2026-04-24T08:30:37.630944Z",
      "apogee_km": 485.85608580598637,
      "perigee_km": 480.20385645516944,
      "latitude_deg": -1.922163995556925e-05,
      "longitude_deg": -105.40499547916282,
      "height_km": 482.0150732262503,
      "semi_major_axis_km": 6861.166971130578,
      "eccentricity": 0.0004119,
      "inclination_deg": 42.9922,
      "raan_deg": 234.6405,
      "arg_perigee_deg": 286.2855,
      "mean_anomaly_deg": 73.7543,
      "mean_motion_rev_day": 15.27586387
    },
    {
      "epoch": "2026-04-25T19:02:06.331776Z",
      "apogee_km": 484.1608856974526,
      "perigee_km": 482.0668319353417,
      "latitude_deg": -4.804062390383447e-05,
      "longitude_deg": 87.18980981153945,
      "height_km": 482.9110774406373,
      "semi_major_axis_km": 6861.250858816396,
      "eccentricity": 0.0001526,
      "inclination_deg": 42.9963,
      "raan_deg": 226.5228,
      "arg_perigee_deg": 268.8605,
      "mean_anomaly_deg": 91.2071,
      "mean_motion_rev_day": 15.27558372
    },
    {
      "epoch": "2026-04-26T18:34:25.243392Z",
      "apogee_km": 483.95926077490003,
      "perigee_km": 481.7612716906897,
      "latitude_deg": -5.0923329468280884e-06,
      "longitude_deg": 87.60446223745637,
      "height_km": 482.6108094294679,
      "semi_major_axis_km": 6860.997266232795,
      "eccentricity": 0.00016018,
      "inclination_deg": 42.9976,
      "raan_deg": 220.9829,
      "arg_perigee_deg": 271.3584,
      "mean_anomaly_deg": 88.7084,
      "mean_motion_rev_day": 15.27643064
    }
  ]
}